{"type": "FeatureCollection", "features": [ {"type": "Feature", "properties": {"norad_id": 40799, "name": "COSMOS 2251 DEB", "group": "cosmos-2251-debris", "lat": 60.60328141983157, "lon": 115.48305282253645, "alt_km": 584.1521389922318, "timestamp": "2025-12-19T10:50:01.600072+00:00", "meta": {"OBJECT_NAME": "COSMOS 2251 DEB", "OBJECT_ID": "1993-036BWC", "EPOCH": "2025-12-16T13:34:01.060320", "MEAN_MOTION": 14.96697184, "ECCENTRICITY": 0.01191597, "INCLINATION": 73.9265, "RA_OF_ASC_NODE": 90.5746, "ARG_OF_PERICENTER": 331.7111, "MEAN_ANOMALY": 27.7633, "EPHEMERIS_TYPE": 0, "CLASSIFICATION_TYPE": "U", "NORAD_CAT_ID": 40799, "ELEMENT_SET_NO": 999, "REV_AT_EPOCH": 50034, "BSTAR": 0.00030724083, "MEAN_MOTION_DOT": 4.009e-05, "MEAN_MOTION_DDOT": 0}, "tle": {"line1": "1 40799U 93036BWC 25350.56529005  .00004009  00000+0  30724-3 0  9998", "line2": "2 40799  73.9265  90.5746 0119159 331.7111  27.7633 14.96697184500342"}}, "geometry": {"type": "Point", "coordinates": [115.48305282253645, 60.60328141983157]}}, {"type": "Feature", "properties": {"norad_id": 40802, "name": "COSMOS 2251 DEB", "group": "cosmos-2251-debris", "lat": 10.617786044618343, "lon": 142.9206798039416, "alt_km": 668.3922852395708, "timestamp": "2025-12-19T10:50:01.600083+00:00", "meta": {"OBJECT_NAME": "COSMOS 2251 DEB", "OBJECT_ID": "1993-036BWF", "EPOCH": "2025-12-17T16:32:13.649568", "MEAN_MOTION": 14.77662029, "ECCENTRICITY": 0.00629965, "INCLINATION": 74.0395, "RA_OF_ASC_NODE": 143.3018, "ARG_OF_PERICENTER": 241.0781, "MEAN_ANOMALY": 118.4067, "EPHEMERIS_TYPE": 0, "CLASSIFICATION_TYPE": "U", "NORAD_CAT_ID": 40802, "ELEMENT_SET_NO": 999, "REV_AT_EPOCH": 64482, "BSTAR": 0.00061564393, "MEAN_MOTION_DOT": 4.522e-05, "MEAN_MOTION_DDOT": 0}, "tle": {"line1": "1 40802U 93036BWF 25351.68904687  .00004522  00000+0  61564-3 0  9996", "line2": "2 40802  74.0395 143.3018 0062996 241.0781 118.4067 14.77662029644824"}}, "geometry": {"type": "Point", "coordinates": [142.9206798039416, 10.617786044618343]}}, {"type": "Feature", "properties": {"norad_id": 40803, "name": "COSMOS 2251 DEB", "group": "cosmos-2251-debris", "lat": -47.259336273998386, "lon": 21.171840289391092, "alt_km": 712.0075111732667, "timestamp": "2025-12-19T10:50:01.600093+00:00", "meta": {"OBJECT_NAME": "COSMOS 2251 DEB", "OBJECT_ID": "1993-036BWG", "EPOCH": "2025-12-05T22:55:29.451072", "MEAN_MOTION": 14.51792027, "ECCENTRICITY": 0.00362816, "INCLINATION": 74.0122, "RA_OF_ASC_NODE": 64.6912, "ARG_OF_PERICENTER": 281.8159, "MEAN_ANOMALY": 77.8934, "EPHEMERIS_TYPE": 0, "CLASSIFICATION_TYPE": "U", "NORAD_CAT_ID": 40803, "ELEMENT_SET_NO": 999, "REV_AT_EPOCH": 58654, "BSTAR": 0.00062935795, "MEAN_MOTION_DOT": 2.525e-05, "MEAN_MOTION_DDOT": 0}, "tle": {"line1": "1 40803U 93036BWG 25339.95520198  .00002525  00000+0  62936-3 0  9999", "line2": "2 40803  74.0122  64.6912 0036281 281.8159  77.8934 14.51792027586549"}}, "geometry": {"type": "Point", "coordinates": [21.171840289391092, -47.259336273998386]}}, {"type": "Feature", "properties": {"norad_id": 40808, "name": "COSMOS 2251 DEB", "group": "cosmos-2251-debris", "lat": -59.60303192867822, "lon": -18.288945826979447, "alt_km": 673.9725038128272, "timestamp": "2025-12-19T10:50:01.600103+00:00", "meta": {"OBJECT_NAME": "COSMOS 2251 DEB", "OBJECT_ID": "1993-036BWM", "EPOCH": "2025-12-18T11:05:09.828384", "MEAN_MOTION": 14.67577712, "ECCENTRICITY": 0.00086916, "INCLINATION": 74.0411, "RA_OF_ASC_NODE": 134.4242, "ARG_OF_PERICENTER": 170.7227, "MEAN_ANOMALY": 247.3074, "EPHEMERIS_TYPE": 0, "CLASSIFICATION_TYPE": "U", "NORAD_CAT_ID": 40808, "ELEMENT_SET_NO": 999, "REV_AT_EPOCH": 63703, "BSTAR": 0.0013644705, "MEAN_MOTION_DOT": 7.729e-05, "MEAN_MOTION_DDOT": 0}, "tle": {"line1": "1 40808U 93036BWM 25352.46191931  .00007729  00000+0  13645-2 0  9997", "line2": "2 40808  74.0411 134.4242 0008691 170.7227 247.3074 14.67577712637032"}}, "geometry": {"type": "Point", "coordinates": [-18.288945826979447, -59.60303192867822]}}, {"type": "Feature", "properties": {"norad_id": 40810, "name": "COSMOS 2251 DEB", "group": "cosmos-2251-debris", "lat": -48.59959759094012, "lon": 43.01281799865381, "alt_km": 705.1046420220337, "timestamp": "2025-12-19T10:50:01.600114+00:00", "meta": {"OBJECT_NAME": "COSMOS 2251 DEB", "OBJECT_ID": "1993-036BWP", "EPOCH": "2025-12-15T05:01:17.555808", "MEAN_MOTION": 14.58738297, "ECCENTRICITY": 0.00184081, "INCLINATION": 74.0368, "RA_OF_ASC_NODE": 70.0332, "ARG_OF_PERICENTER": 221.6033, "MEAN_ANOMALY": 138.3733, "EPHEMERIS_TYPE": 0, "CLASSIFICATION_TYPE": "U", "NORAD_CAT_ID": 40810, "ELEMENT_SET_NO": 999, "REV_AT_EPOCH": 61719, "BSTAR": 0.00049187083, "MEAN_MOTION_DOT": 2.273e-05, "MEAN_MOTION_DDOT": 0}, "tle": {"line1": "1 40810U 93036BWP 25349.20923097  .00002273  00000+0  49187-3 0  9994", "line2": "2 40810  74.0368  70.0332 0018408 221.6033 138.3733 14.58738297617192"}}, "geometry": {"type": "Point", "coordinates": [43.01281799865381, -48.59959759094012]}}, {"type": "Feature", "properties": {"norad_id": 46271, "name": "COSMOS 2251 DEB", "group": "cosmos-2251-debris", "lat": 11.08791928742593, "lon": 68.80409337025688, "alt_km": 750.254993018827, "timestamp": "2025-12-19T10:50:01.600124+00:00", "meta": {"OBJECT_NAME": "COSMOS 2251 DEB", "OBJECT_ID": "1993-036BWT", "EPOCH": "2025-12-17T22:23:15.986688", "MEAN_MOTION": 14.51441027, "ECCENTRICITY": 0.00399725, "INCLINATION": 74.0477, "RA_OF_ASC_NODE": 68.4458, "ARG_OF_PERICENTER": 189.2324, "MEAN_ANOMALY": 170.8108, "EPHEMERIS_TYPE": 0, "CLASSIFICATION_TYPE": "U", "NORAD_CAT_ID": 46271, "ELEMENT_SET_NO": 999, "REV_AT_EPOCH": 84717, "BSTAR": 0.00023861779, "MEAN_MOTION_DOT": 9.34e-06, "MEAN_MOTION_DDOT": 0}, "tle": {"line1": "1 46271U 93036BWT 25351.93282392  .00000934  00000+0  23862-3 0  9994", "line2": "2 46271  74.0477  68.4458 0039972 189.2324 170.8108 14.51441027847176"}}, "geometry": {"type": "Point", "coordinates": [68.80409337025688, 11.08791928742593]}}, {"type": "Feature", "properties": {"norad_id": 46430, "name": "COSMOS 2251 DEB", "group": "cosmos-2251-debris", "lat": 67.89338404115043, "lon": 28.886987611796993, "alt_km": 786.8367617517033, "timestamp": "2025-12-19T10:50:01.600134+00:00", "meta": {"OBJECT_NAME": "COSMOS 2251 DEB", "OBJECT_ID": "1993-036BWU", "EPOCH": "2025-12-18T06:21:50.876352", "MEAN_MOTION": 14.5137898, "ECCENTRICITY": 0.01034571, "INCLINATION": 73.9142, "RA_OF_ASC_NODE": 345.8688, "ARG_OF_PERICENTER": 265.2021, "MEAN_ANOMALY": 93.732, "EPHEMERIS_TYPE": 0, "CLASSIFICATION_TYPE": "U", "NORAD_CAT_ID": 46430, "ELEMENT_SET_NO": 999, "REV_AT_EPOCH": 79763, "BSTAR": 0.0017061853, "MEAN_MOTION_DOT": 7.268e-05, "MEAN_MOTION_DDOT": 0}, "tle": {"line1": "1 46430U 93036BWU 25352.26517218  .00007268  00000+0  17062-2 0  9997", "line2": "2 46430  73.9142 345.8688 0103457 265.2021  93.7320 14.51378980797637"}}, "geometry": {"type": "Point", "coordinates": [28.886987611796993, 67.89338404115043]}}, {"type": "Feature", "properties": {"norad_id": 46432, "name": "COSMOS 2251 DEB", "group": "cosmos-2251-debris", "lat": -40.07707458376776, "lon": 86.63043567784395, "alt_km": 1178.3905972132698, "timestamp": "2025-12-19T10:50:01.600144+00:00", "meta": {"OBJECT_NAME": "COSMOS 2251 DEB", "OBJECT_ID": "1993-036BWW", "EPOCH": "2025-12-16T14:54:01.415808", "MEAN_MOTION": 13.36645779, "ECCENTRICITY": 0.04740577, "INCLINATION": 73.8726, "RA_OF_ASC_NODE": 105.1782, "ARG_OF_PERICENTER": 222.0894, "MEAN_ANOMALY": 155.0222, "EPHEMERIS_TYPE": 0, "CLASSIFICATION_TYPE": "U", "NORAD_CAT_ID": 46432, "ELEMENT_SET_NO": 999, "REV_AT_EPOCH": 67018, "BSTAR": 0.0010887976, "MEAN_MOTION_DOT": 1.051e-05, "MEAN_MOTION_DDOT": 0}, "tle": {"line1": "1 46432U 93036BWW 25350.62084972  .00001051  00000+0  10888-2 0  9996", "line2": "2 46432  73.8726 105.1782 0474057 222.0894 155.0222 13.36645779670182"}}, "geometry": {"type": "Point", "coordinates": [86.63043567784395, -40.07707458376776]}}, {"type": "Feature", "properties": {"norad_id": 47045, "name": "COSMOS 2251 DEB", "group": "cosmos-2251-debris", "lat": -51.955751837387446, "lon": 115.38169767446155, "alt_km": 749.8639750010752, "timestamp": "2025-12-19T10:50:01.600154+00:00", "meta": {"OBJECT_NAME": "COSMOS 2251 DEB", "OBJECT_ID": "1993-036BWZ", "EPOCH": "2025-12-08T18:12:30.966336", "MEAN_MOTION": 14.3889696, "ECCENTRICITY": 0.00302024, "INCLINATION": 74.0568, "RA_OF_ASC_NODE": 156.4972, "ARG_OF_PERICENTER": 298.2595, "MEAN_ANOMALY": 80.2379, "EPHEMERIS_TYPE": 0, "CLASSIFICATION_TYPE": "U", "NORAD_CAT_ID": 47045, "ELEMENT_SET_NO": 999, "REV_AT_EPOCH": 7748, "BSTAR": 0.00016053941, "MEAN_MOTION_DOT": 4.71e-06, "MEAN_MOTION_DDOT": 0}, "tle": {"line1": "1 47045U 93036BWZ 25342.75869174  .00000471  00000+0  16054-3 0  9994", "line2": "2 47045  74.0568 156.4972 0030202 298.2595  80.2379 14.38896960 77482"}}, "geometry": {"type": "Point", "coordinates": [115.38169767446155, -51.955751837387446]}}, {"type": "Feature", "properties": {"norad_id": 47048, "name": "COSMOS 2251 DEB", "group": "cosmos-2251-debris", "lat": -16.48182774026889, "lon": 131.36818305930996, "alt_km": 680.2956956947037, "timestamp": "2025-12-19T10:50:01.600165+00:00", "meta": {"OBJECT_NAME": "COSMOS 2251 DEB", "OBJECT_ID": "1993-036BXC", "EPOCH": "2025-12-12T16:45:08.160768", "MEAN_MOTION": 14.52302543, "ECCENTRICITY": 0.01328752, "INCLINATION": 73.9781, "RA_OF_ASC_NODE": 319.2649, "ARG_OF_PERICENTER": 147.2155, "MEAN_ANOMALY": 32.9715, "EPHEMERIS_TYPE": 0, "CLASSIFICATION_TYPE": "U", "NORAD_CAT_ID": 47048, "ELEMENT_SET_NO": 999, "REV_AT_EPOCH": 59689, "BSTAR": 0.0015366021, "MEAN_MOTION_DOT": 6.991e-05, "MEAN_MOTION_DDOT": 0}, "tle": {"line1": "1 47048U 93036BXC 25346.69801112  .00006991  00000+0  15366-2 0  9999", "line2": "2 47048  73.9781 319.2649 0132875 147.2155  32.9715 14.52302543596898"}}, "geometry": {"type": "Point", "coordinates": [131.36818305930996, -16.48182774026889]}}]}